{
  "type": "FeatureCollection",
  "features": [
    {
      "type": "Feature",
      "properties": {
        "norad_id": 36585,
        "name": "GPS BIIF-1  (PRN 25)",
        "group": "gnss",
        "lat": -11.550896356862838,
        "lon": -152.55166572117676,
        "alt_km": 20118.731880524527,
        "timestamp": "2025-12-17T10:52:54.595176+00:00",
        "meta_object_name": "GPS BIIF-1  (PRN 25)",
        "meta_object_id": "2010-022A",
        "meta_epoch": "2025-12-16T01:01:22.883808",
        "meta_mean_motion": 2.00553454,
        "meta_eccentricity": 0.01262565,
        "meta_inclination": 54.2996,
        "meta_ra_of_asc_node": 215.9407,
        "meta_arg_of_pericenter": 65.1133,
        "meta_mean_anomaly": 343.5127,
        "meta_ephemeris_type": 0,
        "meta_classification_type": "U",
        "meta_norad_cat_id": 36585,
        "meta_element_set_no": 999,
        "meta_rev_at_epoch": 11392,
        "meta_bstar": 0,
        "meta_mean_motion_dot": 7.2e-07,
        "meta_mean_motion_ddot": 0,
        "tle_line1": "1 36585U 10022A   25350.04262597  .00000072  00000+0  00000+0 0  9999",
        "tle_line2": "2 36585  54.2996 215.9407 0126256  65.1133 343.5127  2.00553454113922"
      },
      "geometry": {
        "type": "Point",
        "coordinates": [
          -152.55166572117676,
          -11.550896356862838
        ]
      }
    },
    {
      "type": "Feature",
      "properties": {
        "norad_id": 36828,
        "name": "BEIDOU-2 IGSO-1 (C06)",
        "group": "gnss",
        "lat": -10.25202070146971,
        "lon": -7.917445830708193,
        "alt_km": 35588.57714174553,
        "timestamp": "2025-12-17T10:52:54.595187+00:00",
        "meta_object_name": "BEIDOU-2 IGSO-1 (C06)",
        "meta_object_id": "2010-036A",
        "meta_epoch": "2025-12-14T21:38:21.623424",
        "meta_mean_motion": 1.00275796,
        "meta_eccentricity": 0.00512569,
        "meta_inclination": 54.2866,
        "meta_ra_of_asc_node": 164.6279,
        "meta_arg_of_pericenter": 215.8888,
        "meta_mean_anomaly": 135.7931,
        "meta_ephemeris_type": 0,
        "meta_classification_type": "U",
        "meta_norad_cat_id": 36828,
        "meta_element_set_no": 999,
        "meta_rev_at_epoch": 5624,
        "meta_bstar": 0,
        "meta_mean_motion_dot": -2.4e-07,
        "meta_mean_motion_ddot": 0,
        "tle_line1": "1 36828U 10036A   25348.90163916 -.00000024  00000+0  00000+0 0  9999",
        "tle_line2": "2 36828  54.2866 164.6279 0051256 215.8888 135.7931  1.00275796 56247"
      },
      "geometry": {
        "type": "Point",
        "coordinates": [
          -7.917445830708193,
          -10.25202070146971
        ]
      }
    },
    {
      "type": "Feature",
      "properties": {
        "norad_id": 37210,
        "name": "BEIDOU-2 G4 (C04)",
        "group": "gnss",
        "lat": -1.0823467415637844,
        "lon": 49.721141893919295,
        "alt_km": 35823.819736534715,
        "timestamp": "2025-12-17T10:52:54.595200+00:00",
        "meta_object_name": "BEIDOU-2 G4 (C04)",
        "meta_object_id": "2010-057A",
        "meta_epoch": "2025-12-16T19:15:12.189888",
        "meta_mean_motion": 1.00271976,
        "meta_eccentricity": 0.00105232,
        "meta_inclination": 3.1945,
        "meta_ra_of_asc_node": 69.9245,
        "meta_arg_of_pericenter": 192.1833,
        "meta_mean_anomaly": 272.4593,
        "meta_ephemeris_type": 0,
        "meta_classification_type": "U",
        "meta_norad_cat_id": 37210,
        "meta_element_set_no": 999,
        "meta_rev_at_epoch": 5546,
        "meta_bstar": 0,
        "meta_mean_motion_dot": -9e-07,
        "meta_mean_motion_ddot": 0,
        "tle_line1": "1 37210U 10057A   25350.80222442 -.00000090  00000+0  00000+0 0  9993",
        "tle_line2": "2 37210   3.1945  69.9245 0010523 192.1833 272.4593  1.00271976 55465"
      },
      "geometry": {
        "type": "Point",
        "coordinates": [
          49.721141893919295,
          -1.0823467415637844
        ]
      }
    },
    {
      "type": "Feature",
      "properties": {
        "norad_id": 37256,
        "name": "BEIDOU-2 IGSO-2 (C07)",
        "group": "gnss",
        "lat": 47.43273834383514,
        "lon": -6.514664962996573,
        "alt_km": 35915.761951071276,
        "timestamp": "2025-12-17T10:52:54.595212+00:00",
        "meta_object_name": "BEIDOU-2 IGSO-2 (C07)",
        "meta_object_id": "2010-068A",
        "meta_epoch": "2025-12-16T17:17:38.444640",
        "meta_mean_motion": 1.00285618,
        "meta_eccentricity": 0.0048244,
        "meta_inclination": 47.8781,
        "meta_ra_of_asc_node": 274.0996,
        "meta_arg_of_pericenter": 216.2935,
        "meta_mean_anomaly": 322.4053,
        "meta_ephemeris_type": 0,
        "meta_classification_type": "U",
        "meta_norad_cat_id": 37256,
        "meta_element_set_no": 999,
        "meta_rev_at_epoch": 5496,
        "meta_bstar": 0,
        "meta_mean_motion_dot": -2.14e-06,
        "meta_mean_motion_ddot": 0,
        "tle_line1": "1 37256U 10068A   25350.72058385 -.00000214  00000+0  00000+0 0  9997",
        "tle_line2": "2 37256  47.8781 274.0996 0048244 216.2935 322.4053  1.00285618 54961"
      },
      "geometry": {
        "type": "Point",
        "coordinates": [
          -6.514664962996573,
          47.43273834383514
        ]
      }
    },
    {
      "type": "Feature",
      "properties": {
        "norad_id": 37384,
        "name": "BEIDOU-2 IGSO-3 (C08)",
        "group": "gnss",
        "lat": -38.4060801160703,
        "lon": 17.165892334636922,
        "alt_km": 35881.72909801062,
        "timestamp": "2025-12-17T10:52:54.595224+00:00",
        "meta_object_name": "BEIDOU-2 IGSO-3 (C08)",
        "meta_object_id": "2011-013A",
        "meta_epoch": "2025-12-16T19:14:25.722240",
        "meta_mean_motion": 1.00270021,
        "meta_eccentricity": 0.00353731,
        "meta_inclination": 62.1488,
        "meta_ra_of_asc_node": 41.877,
        "meta_arg_of_pericenter": 187.9496,
        "meta_mean_anomaly": 251.9313,
        "meta_ephemeris_type": 0,
        "meta_classification_type": "U",
        "meta_norad_cat_id": 37384,
        "meta_element_set_no": 999,
        "meta_rev_at_epoch": 5383,
        "meta_bstar": 0,
        "meta_mean_motion_dot": -1.84e-06,
        "meta_mean_motion_ddot": 0,
        "tle_line1": "1 37384U 11013A   25350.80168660 -.00000184  00000+0  00000+0 0  9993",
        "tle_line2": "2 37384  62.1488  41.8770 0035373 187.9496 251.9313  1.00270021 53834"
      },
      "geometry": {
        "type": "Point",
        "coordinates": [
          17.165892334636922,
          -38.4060801160703
        ]
      }
    },
    {
      "type": "Feature",
      "properties": {
        "norad_id": 37605,
        "name": "GSAT-8 (GAGAN/PRN 127)",
        "group": "gnss",
        "lat": -1.097103954951988,
        "lon": -55.3166897870181,
        "alt_km": 35756.222159969424,
        "timestamp": "2025-12-17T10:52:54.595237+00:00",
        "meta_object_name": "GSAT-8 (GAGAN/PRN 127)",
        "meta_object_id": "2011-022A",
        "meta_epoch": "2025-12-16T17:02:39.880320",
        "meta_mean_motion": 1.00272991,
        "meta_eccentricity": 0.00085796,
        "meta_inclination": 1.6598,
        "meta_ra_of_asc_node": 84.1537,
        "meta_arg_of_pericenter": 185.09,
        "meta_mean_anomaly": 127.1054,
        "meta_ephemeris_type": 0,
        "meta_classification_type": "U",
        "meta_norad_cat_id": 37605,
        "meta_element_set_no": 999,
        "meta_rev_at_epoch": 5138,
        "meta_bstar": 0,
        "meta_mean_motion_dot": 1.07e-06,
        "meta_mean_motion_ddot": 0,
        "tle_line1": "1 37605U 11022A   25350.71018380  .00000107  00000+0  00000+0 0  9996",
        "tle_line2": "2 37605   1.6598  84.1537 0008579 185.0900 127.1054  1.00272991 51380"
      },
      "geometry": {
        "type": "Point",
        "coordinates": [
          -55.3166897870181,
          -1.097103954951988
        ]
      }
    },
    {
      "type": "Feature",
      "properties": {
        "norad_id": 37763,
        "name": "BEIDOU-2 IGSO-4 (C09)",
        "group": "gnss",
        "lat": 3.7291009912601574,
        "lon": -15.366876236610482,
        "alt_km": 35415.17879647167,
        "timestamp": "2025-12-17T10:52:54.595250+00:00",
        "meta_object_name": "BEIDOU-2 IGSO-4 (C09)",
        "meta_object_id": "2011-038A",
        "meta_epoch": "2025-12-15T07:50:06.120672",
        "meta_mean_motion": 1.00281785,
        "meta_eccentricity": 0.01493054,
        "meta_inclination": 54.5835,
        "meta_ra_of_asc_node": 167.3229,
        "meta_arg_of_pericenter": 230.222,
        "meta_mean_anomaly": 258.6911,
        "meta_ephemeris_type": 0,
        "meta_classification_type": "U",
        "meta_norad_cat_id": 37763,
        "meta_element_set_no": 999,
        "meta_rev_at_epoch": 5280,
        "meta_bstar": 0,
        "meta_mean_motion_dot": 6.8e-07,
        "meta_mean_motion_ddot": 0,
        "tle_line1": "1 37763U 11038A   25349.32645973  .00000068  00000+0  00000+0 0  9993",
        "tle_line2": "2 37763  54.5835 167.3229 0149305 230.2220 258.6911  1.00281785 52800"
      },
      "geometry": {
        "type": "Point",
        "coordinates": [
          -15.366876236610482,
          3.7291009912601574
        ]
      }
    }
  ]
}